AKEBONO (EXOS-D)        
1 19822U 89016A   20246.66948964  .00028215  48072-6  48572-3 0  9996
2 19822  75.0147 333.1417 1717590 178.8863 181.6898 12.11431924 48945
HST                     
1 20580U 90037B   20246.95425928  .00000459  00000-0  16925-4 0  9997
2 20580  28.4689 167.0545 0002670 201.1772  80.1670 15.09425497467686
POLAR                   
1 23802U 96013A   20245.93998166  .00000191  00000-0  00000-0 0  9999
2 23802  78.7080 248.8539 6252531 280.7600  18.7834  1.29846503117405
SWAS                    
1 25560U 98071A   20247.19388964  .00000108  00000-0  18700-4 0  9995
2 25560  69.8989 188.0458 0010328 236.7612 123.2555 14.93901335180857
ORSTED                  
1 25635U 99008B   20247.09120521  .00000043  00000-0  17274-4 0  9994
2 25635  96.4456 253.0857 0140442 102.6707 259.0234 14.48220059136139
CXO                     
1 25867U 99040B   20248.50214837  .00000543  00000-0  00000-0 0  9998
2 25867  61.0892 264.8839 7859216 227.2833   0.6028  0.37804232  9353
XMM-NEWTON              
1 25989U 99066A   20249.32435912  .00000073  00000-0  00000+0 0  9998
2 25989  71.0931 318.9364 7008936  92.5780 359.9364  0.50133600 26784
TERRA                   
1 25994U 99068A   20247.45370554  .00000092  00000-0  30369-4 0  9995
2 25994  98.2091 320.6368 0001325 109.5674 250.5676 14.57113408101671
CLUSTER II-FM7 (SAMBA)  
1 26410U 00041A   20248.51360316 -.00000116  00000-0  00000-0 0  9998
2 26410 132.0548 342.2380 4492656 185.3020 359.9397  0.44194402 10931
CLUSTER II-FM6 (SALSA)  
1 26411U 00041B   20248.61124729 -.00000237  00000-0  00000+0 0  9999
2 26411 132.1559 343.6044 5823234 190.9797 359.9195  0.44217600 22004
CLUSTER II-FM5 (RUMBA)  
1 26463U 00045A   20248.57052626 -.00000163  00000-0  00000+0 0  9999
2 26463 135.7929 343.3050 5421354 190.7791 359.9650  0.44216839 23273
CLUSTER II-FM8 (TANGO)  
1 26464U 00045B   20248.50271236 -.00000116  00000-0  00000-0 0  9992
2 26464 132.0492 342.2350 4488889 185.2854 359.9679  0.44219979 10943
ODIN                    
1 26702U 01007A   20246.61973408 -.00000140  00000-0 -50191-5 0  9995
2 26702  97.5533 262.2933 0011255  12.3509 347.7993 15.08144949 68452
TIMED                   
1 26998U 01055B   20246.83912631  .00000117  00000-0  16685-4 0  9991
2 26998  74.0726 139.1455 0001934 234.2977 125.8024 14.88211007 16057
RHESSI                  
1 27370U 02004A   20247.18496429  .00001981  00000-0  64905-4 0  9990
2 27370  38.0330  65.4722 0013075 254.3900 105.5429 15.33050641 26274
INTEGRAL                
1 27540U 02048A   20246.61829431  .00000262  00000-0  00000+0 0  9999
2 27540  56.3966 107.6596 8981414 293.7102   1.8197  0.37573175 18685
CORIOLIS                
1 27640U 03001A   20246.90529500 -.00000007  00000-0  17444-4 0  9999
2 27640  98.7269 255.1639 0014309 169.7949 252.0162 14.19045634914420
SORCE                   
1 27651U 03004A   20246.43162720  .00000048  00000-0  19123-4 0  9999
2 27651  39.9948 260.7396 0022981 202.3145 157.6646 14.89141229955709
MOST                    
1 27843U 03031D   20246.88740418 -.00000013  00000-0  14379-4 0  9998
2 27843  98.7107 253.0623 0009171 226.0563 133.9858 14.20616516890591
SCISAT 1                
1 27858U 03036A   20246.86914137  .00000035  00000-0  99196-5 0  9992
2 27858  73.9340  32.1779 0008740 227.9369 132.1062 14.77299080919083
SWIFT                   
1 28485U 04047A   20246.55616234  .00000843  00000-0  27088-4 0  9992
2 28485  20.5557 205.1051 0010852 312.9426  47.0097 15.04664357865120
FORMOSAT-3 FM6          
1 29047U 06011A   20247.19314224 -.00000153  00000-0 -43303-4 0  9999
2 29047  71.9779 311.3218 0052292 287.2882  72.2536 14.28747061752436
FORMOSAT-3 FM1          
1 29048U 06011B   20246.93370491  .00000020  00000-0  24226-4 0  9993
2 29048  71.9650 222.6658 0045640 247.5086 112.1215 14.28714384754871
FORMOSAT-3 FM5          
1 29049U 06011C   20246.86037473  .00000047  00000-0  34900-4 0  9995
2 29049  72.0214  34.9030 0036686 272.7149  86.9788 14.28795466750653
FORMOSAT-3 FM3          
1 29050U 06011D   20247.10248424  .00000126  00000-0  36773-4 0  9993
2 29050  72.0162 172.5703 0050016 185.9690 174.0874 14.58942203767752
FORMOSAT-3 FM4          
1 29051U 06011E   20247.27894302  .00000054  00000-0  36879-4 0  9991
2 29051  72.0048 295.9601 0067190 151.7916 208.6887 14.28826745753309
FORMOSAT-3 FM2          
1 29052U 06011F   20246.78274951  .00000056  00000-0  37968-4 0  9991
2 29052  72.0366  11.4045 0041432 233.5307 126.2009 14.28932293750742
CLOUDSAT                
1 29107U 06016A   20246.88969575  .00000075  00000-0  24227-4 0  9996
2 29107  98.2363 193.9135 0002577 118.5385 241.6076 14.62452659763641
CALIPSO                 
1 29108U 06016B   20246.95764797  .00000099  00000-0  28917-4 0  9990
2 29108  98.2347 193.7491 0001308  76.1418 283.9929 14.62435448763647
HINODE (SOLAR-B)        
1 29479U 06041A   20247.28158727  .00000054  00000-0  19014-4 0  9995
2 29479  98.1594 258.4588 0018270 121.4601 238.8390 14.65082598745290
SJ-6C                   
1 29505U 06046A   20247.30479084 -.00000300  00000-0 -22202-4 0  9994
2 29505  97.8158 260.7558 0005478 124.0350 236.1429 14.94901657755249
SJ-6D                   
1 29506U 06046B   20247.38928660  .00000258  00000-0  29894-4 0  9996
2 29506  97.8353 260.9831 0001886 178.0012 182.1223 14.93527463754807
AGILE                   
1 31135U 07013A   20247.27521423  .00002481  00000-0  41024-4 0  9995
2 31135   2.4678 305.3399 0011960 312.2878  47.6162 15.32485516744003
AIM                     
1 31304U 07015A   20247.31224441  .00000750  00000-0  45623-4 0  9996
2 31304  97.8956 132.9656 0006685  90.9722 269.2274 15.13698696732461
FGRST (GLAST)           
1 33053U 08029A   20246.55945717  .00000507  00000-0  12190-4 0  9999
2 33053  25.5829 295.2797 0012279 178.3407 181.7170 15.11364626674994
WISE                    
1 36119U 09071A   20246.70271405  .00000815  00000-0  30412-4 0  9995
2 36119  97.3227 281.9158 0004264 102.5408 257.6310 15.30213865595638
SDO                     
1 36395U 10005A   20247.18086969 -.00000079  00000-0  00000+0 0  9990
2 36395  30.4497 120.0001 0001227 358.9979 186.8996  1.00276520 38844
CRYOSAT 2               
1 36508U 10013A   20246.85878458  .00000094  00000-0  22519-4 0  9990
2 36508  92.0270 126.5102 0004424 329.4793  30.6156 14.51904216551502
X-SAT                   
1 37389U 11015C   20247.42011069 -.00000037  00000-0  21935-5 0  9992
2 37389  98.4285 299.6276 0015199  64.7328 295.5430 14.24380717487389
GCOM-W1 (SHIZUKU)       
1 38337U 12025A   20246.86627178  .00000025  00000-0  15584-4 0  9997
2 38337  98.2000 185.7457 0002609  86.0044 340.7459 14.57075547441276
NUSTAR                  
1 38358U 12031A   20246.65096133  .00000963  00000-0  26782-4 0  9998
2 38358   6.0273  68.2468 0012391 282.7435  77.1309 14.88333944447535
NEOSSAT                 
1 39089U 13009D   20247.11489811  .00000030  00000-0  25764-4 0  9991
2 39089  98.4626  87.3949 0012401  59.7451 300.4960 14.34519994393696
IRIS                    
1 39197U 13033A   20246.54465388  .00000061  00000-0  15444-4 0  9995
2 39197  97.9612  67.7977 0027270 343.5425  16.4898 14.78748513387497
HISAKI (SPRINT-A)       
1 39253U 13049A   20247.22573870  .00000136  00000-0  94840-4 0  9997
2 39253  29.7190 159.0618 0137437 172.0310 188.2481 13.55227227345607
CASSIOPE                
1 39265U 13055A   20246.86711234  .00004000  00000-0  11057-3 0  9996
2 39265  80.9649 233.4706 0660404  76.5782 290.8095 14.29739742358853
STSAT-3                 
1 39422U 13066G   20246.88171437  .00000096  00000-0  15415-4 0  9994
2 39422  97.5072 275.7313 0021550 297.7705  62.1328 14.89853798368663
SWARM B                 
1 39451U 13067A   20246.86247381  .00000350  00000-0  13860-4 0  9992
2 39451  87.7476 256.6233 0001557  81.7543 278.3879 15.21776040376302
SWARM A                 
1 39452U 13067B   20246.87418919  .00001175  00000-0  24203-4 0  9990
2 39452  87.3573 102.5485 0003594  87.9509 272.2160 15.44685013381135
SWARM C                 
1 39453U 13067C   20246.87411741  .00001169  00000-0  24077-4 0  9999
2 39453  87.3427 103.3491 0003589  88.0019 272.1650 15.44685781381092
BRITE-CA1 (TORONTO)     
1 40020U 14033L   20247.25565545  .00000035  00000-0  14204-4 0  9992
2 40020  97.7319  71.0153 0087238 183.4845 176.5764 14.66657150332164
OCO 2                   
1 40059U 14035A   20246.85023529  .00000025  00000-0  15523-4 0  9996
2 40059  98.2057 186.4784 0001454  77.6206 282.5155 14.57112414328305
BRITE-PL2 (HEWELIUSZ)   
1 40119U 14049B   20246.83341614  .00000134  00000-0  22356-4 0  9997
2 40119  97.8952 338.2931 0016640 212.1911 147.8289 14.84528681327266
RESURS P2               
1 40360U 14087A   20247.34440409  .00000718  00000-0  24407-4 0  9993
2 40360  97.2449 334.6304 0007422 266.6656 133.6298 15.33635560318253
MMS 1                   
1 40482U 15011A   20242.30208333 -.00002152  00000-0  00000+0 0  9998
2 40482  29.8110 119.7307 8564372  23.3614  34.2825  0.28615199 11426
MMS 2                   
1 40483U 15011B   20242.30208333 -.00002151  00000-0  00000+0 0  9998
2 40483  29.8101 119.7319 8561845  23.3631  34.2751  0.28615340 11405
MMS 3                   
1 40484U 15011C   20242.30208333 -.00002153  00000-0  00000+0 0  9991
2 40484  29.7903 119.7172 8564099  23.3959  34.2482  0.28612628 11406
MMS 4                   
1 40485U 15011D   20242.30208333 -.00002152  00000-0  00000+0 0  9991
2 40485  29.8067 119.7456 8563306  23.3585  34.2475  0.28624923 11402
ASTROSAT                
1 40930U 15052A   20246.98922935  .00000722  00000-0  12209-4 0  9999
2 40930   5.9959 149.6440 0009091 284.1723  75.7394 14.76327492266698
DAMPE                   
1 41173U 15078A   20247.25301317  .00000103  00000-0  71433-5 0  9991
2 41173  97.3288 239.4766 0013337 344.8219 142.0265 15.23894819262246
PISAT                   
1 41784U 16059B   20246.82370674  .00000074  00000-0  23105-4 0  9992
2 41784  98.0119 301.1890 0033239  70.7048 289.7745 14.63534593210224
HXMT (HUIYAN)           
1 42758U 17034A   20247.37668273  .00000247  00000-0  29064-4 0  9996
2 42758  43.0200 328.5040 0009704 164.1619 281.2816 15.08880235177640
FLYING LAPTOP           
1 42831U 17042G   20246.90151455  .00000083  00000-0  13700-4 0  9992
2 42831  97.5097 125.1503 0014992  32.4411 327.7726 14.91152171170839
PICSAT                  
1 43132U 18004X   20246.76672353  .00001527  00000-0  64836-4 0  9995
2 43132  97.4422 317.6205 0010711 135.1045 225.1060 15.24585680146838
ZHANGZHENG-1 (CSES)     
1 43194U 18015C   20247.40245556  .00001195  00000-0  56842-4 0  9997
2 43194  97.4452  11.4997 0014915 193.2629 204.6952 15.21054296143514
ICON                    
1 44628U 19068A   20247.03090577  .00000460  00000-0  24902-4 0  9995
2 44628  26.9891 247.3846 0019403  92.8785 267.3994 14.91725827 49011
